satname,norad_id,inclination_deg,eccentricity,mean_motion_rev_per_day,perigee_km,apogee_km,l1,l2
STARLINK-1413,45689,53.0557,0.0001292,15.06402661,546.30864838855,548.098156348522,1 45689U 20035AJ  25277.63951473  .00005863  00000+0  41214-3 0  9999,2 45689  53.0557  37.1495 0001292  77.4160 282.6973 15.06402661295269
STARLINK-1417,45693,53.0562,0.0001565,15.06390253,546.157609526038,548.3252529750189,1 45693U 20035AN  25277.63583487  .00000743  00000+0  68824-4 0  9999,2 45693  53.0562  37.1740 0001565  90.0990 270.0178 15.06390253295348
STARLINK-1420,45695,53.0553,0.0001387,15.06388856,546.2851623215256,548.2062634860849,1 45695U 20035AQ  25277.70308375 -.00001048  00000+0 -51508-4 0  9992,2 45695  53.0553  16.8581 0001387  95.8925 264.2222 15.06388856295644
STARLINK-1422,45696,53.0544,0.0001167,15.06426277,546.3228451101395,547.9392026669148,1 45696U 20035AR  25276.65168582  .00012435  00000+0  85163-3 0  9993,2 45696  53.0544  41.5912 0001167  87.1152 272.9971 15.06426277295197
STARLINK-1351,45697,53.0558,0.0001288,15.06392002,546.3440827132954,548.1280588163245,1 45697U 20035AS  25277.68928714  .00004379  00000+0  31275-3 0  9992,2 45697  53.0558  16.9299 0001288  84.5880 275.5255 15.06392002295642
STARLINK-1398,45699,53.0535,0.0002033,15.44737098,430.7661357105544,433.53519867603427,1 45699U 20035AU  25276.61407548  .00046297  00000+0  97820-3 0  9996,2 45699  53.0535 349.5378 0002033 215.2929 144.7942 15.44737098295930
STARLINK-1400,45700,53.0549,0.0001215,15.06384033,546.4190591302295,548.1019307214974,1 45700U 20035AV  25277.66347067  .00027940  00000+0  18880-2 0  9996,2 45700  53.0549  17.0500 0001215  91.8233 268.2895 15.06384033295630
STARLINK-1403,45701,53.0572,0.0001609,15.06383974,546.1463792695358,548.3749722415942,1 45701U 20035AW  25277.69297647 -.00000233  00000+0  32719-5 0  9995,2 45701  53.0572  16.9144 0001609 113.1147 247.0012 15.06383974295637
STARLINK-1407,45703,53.0441,0.0009261,15.36265665,450.83353119581534,463.49387515824037,1 45703U 20035AY  25277.59509808  .00031943  00000+0  89646-3 0  9991,2 45703  53.0441 342.1058 0009261 300.0069  60.0013 15.36265665296122
STARLINK-1411,45706,53.0571,0.0002223,15.32647644,466.39469569401444,469.43845111274914,1 45706U 20035BB  25277.63782738  .00149903  00000+0  46072-2 0  9995,2 45706  53.0571   8.6622 0002223  32.7347 327.3791 15.32647644295745
STARLINK-1423,45710,53.0579,0.0002088,15.06394052,545.7837711763077,548.6758043468762,1 45710U 20035BF  25277.45338228 -.00010737  00000+0 -70309-3 0  9996,2 45710  53.0579  17.9942 0002088 107.1705 252.9513 15.06394052295603
STARLINK-1433,45711,53.0554,0.0001355,15.06390897,546.3010689527136,548.1778459726866,1 45711U 20035BG  25277.70034313  .00005494  00000+0  38754-3 0  9993,2 45711  53.0554  16.8818 0001355 100.3051 259.8091 15.06390897295635
STARLINK-1434,45712,53.052,6.33e-05,15.13125579,526.2379408594916,527.1120900606502,1 45712U 20035BH  25277.66938409  .00038659  00000+0  21621-2 0  9991,2 45712  53.0520  14.6432 0000633 312.9646  47.1293 15.13125579295673
STARLINK-1465,45731,53.0531,0.0001502,15.06402658,546.1632254332617,548.2435976928955,1 45731U 20038B   25277.79986301  .00003495  00000+0  25338-3 0  9993,2 45731  53.0531 216.4299 0001502 113.4238 246.6909 15.06402658292693
STARLINK-1471,45735,53.0511,0.0003797,15.3954316,444.8675782944856,450.05093609219875,1 45735U 20038F   25277.68922131  .00026963  00000+0  68323-3 0  9992,2 45735  53.0511 163.6132 0003797 102.2806 257.8623 15.39543160293439
STARLINK-1474,45738,53.0376,0.0005562,15.62358268,377.0876985806417,384.6063924328628,1 45738U 20038J   25276.61046788  .00084122  00000+0  92869-3 0  9995,2 45738  53.0376 130.9826 0005562 163.9591 196.1600 15.62358268293793
STARLINK-1475,45739,53.0522,0.0004666,15.64723716,370.88290236169905,377.18402783973124,1 45739U 20038K   25277.91667823  .00291392  00000+0  28457-2 0  9999,2 45739  53.0522  92.2666 0004666 144.9467 136.1042 15.64723716  6044
STARLINK-1480,45741,53.0527,0.0001559,15.06404024,546.1195650678173,548.2788849027684,1 45741U 20038M   25277.84778360  .00005013  00000+0  35515-3 0  9990,2 45741  53.0527 216.2216 0001559  79.8100 280.3065 15.06404024292711
STARLINK-1500,45744,53.0385,0.000546,15.26091797,483.76028944468726,491.2575748025665,1 45744U 20038Q   25276.22009990  .00039610  00000+0  15207-2 0  9995,2 45744  53.0385 206.4103 0005460 107.0123 253.1473 15.26091797292707
STARLINK-1504,45746,53.0284,0.0006566,15.36116341,453.1183142195241,462.09501279844335,1 45746U 20038S   25276.30809226  .00040782  00000+0  11464-2 0  9999,2 45746  53.0284 172.9337 0006566  79.9243 280.2500 15.36116341293179
STARLINK-1506,45747,53.0503,0.0005018,15.2033114,501.3871096937646,508.2948664025698,1 45747U 20038T   25277.77457992  .00032983  00000+0  15053-2 0  9993,2 45747  53.0503 200.5565 0005018 133.8605 226.2805 15.20331140292927
STARLINK-1464,45751,53.0537,0.0001789,15.06406444,545.952866753023,548.4307494005534,1 45751U 20038X   25277.51789295  .00010219  00000+0  70380-3 0  9997,2 45751  53.0537 197.7007 0001789  88.3221 271.7973 15.06406444292943
STARLINK-1477,45754,53.0536,0.0001906,15.0640427,545.8785020934038,548.5184399749623,1 45754U 20038AA  25277.79800904  .00002108  00000+0  16035-3 0  9996,2 45754  53.0536 196.4420 0001906  82.6571 277.4635 15.06404270292983
STARLINK-1478,45755,53.0515,0.0001217,15.06407792,546.3448646703191,548.0304886966233,1 45755U 20038AB  25277.48470551  .00004298  00000+0  30722-3 0  9995,2 45755  53.0515 197.8541 0001217  88.1440 271.9688 15.06407792292924
STARLINK-1484,45756,53.0157,0.0004727,15.55660135,397.0302408514981,403.4385131513154,1 45756U 20038AC  25277.83309863  .00114897  00000+0  16256-2 0  9994,2 45756  53.0157 111.8197 0004727 139.3167 220.8196 15.55660135294165
STARLINK-1493,45759,53.0523,0.000134,15.0639966,546.2846031431072,548.140596835904,1 45759U 20038AF  25276.21306670  .00032155  00000+0  21678-2 0  9991,2 45759  53.0523 203.5584 0001340 104.1141 255.9997 15.06399660292731
STARLINK-1494,45760,53.0548,0.0001423,15.44570417,431.67143565360584,433.6097829612145,1 45760U 20038AG  25277.91667823  .00269114  00000+0  55130-2 0  9998,2 45760  53.0548 189.1552 0001423  98.3281 353.2904 15.44570417  5897
STARLINK-1502,45764,53.0527,0.000183,15.06399903,545.9445163888158,548.4791940698306,1 45764U 20038AL  25277.77222495  .00004334  00000+0  30968-3 0  9992,2 45764  53.0527 196.5589 0001830  82.7735 277.3462 15.06399903292983
